CELESTIS-17 & SHERPA-FX1
1 47486U 21006CB  26068.64311433  .00007207  00000+0  24301-3 0  9993
2 47486  97.2397 112.1052 0006630 178.1385 181.9882 15.30994801284065
STARLINK-32899          
1 62994U 25031P   26068.18533830  .00028602  00000+0  10440-2 0  9992
2 62994  42.9974 146.5747 0003742 291.0708  68.9743 15.27602946 61011
